FENGYUN 3D              
1 43010U 17072A   26172.51679571 -.00000158  00000+0 -52975-4 0  9991
2 43010  99.0133 147.0175 0002490  55.5625 304.5785 14.19739395445605
NOAA 20 (JPSS-1)        
1 43013U 17073A   26171.38467992  .00000046  00000+0  42637-4 0  9999
2 43013  98.7771 110.8189 0000383 117.6624 242.4591 14.19512290444925
GOES 17                 
1 43226U 18022A   26171.38933449 -.00000187  00000+0  00000+0 0  9995
2 43226   0.9463  85.6559 0000598  28.1563 205.4138  1.00269480 30451
SENTINEL-3B             
1 43437U 18039A   26171.41568603  .00000074  00000+0  48499-4 0  9990
2 43437  98.6248 238.9017 0000727  94.6800 265.4463 14.26735540424583
FENGYUN 2H              
1 43491U 18050A   26172.54842275 -.00000131  00000+0  00000+0 0  9994
2 43491   3.0437  79.0286 0001805 136.1614 331.3565  1.00269411 29481
METOP-C                 
1 43689U 18087A   26171.44664144  .00000064  00000+0  49212-4 0  9995
2 43689  98.6643 230.9907 0001880 125.1991 234.9363 14.21512882395295
GEO-KOMPSAT-2A          
1 43823U 18100A   26171.41741235 -.00000348  00000+0  00000+0 0  9998
2 43823   0.0473 151.2642 0002170 295.2838 100.6088  1.00272261 27669
METEOR-M2 2             
1 44387U 19038A   26172.52968670  .00000005  00000+0  22237-4 0  9992
2 44387  98.9151 159.8796 0001904  41.8346 318.2978 14.24366528361915
ARKTIKA-M 1             
1 47719U 21016A   26168.49069990 -.00000210  00000+0  00000+0 0  9999
2 47719  63.2922  57.5948 7288528 269.9420  14.6012  2.00622504 38796
FENGYUN 3E              
1 49008U 21062A   26172.50017913  .00000183  00000+0  10675-3 0  9999
2 49008  98.7495 175.8605 0002823  78.9678 281.1816 14.19904829257195
GOES 18                 
1 51850U 22021A   26170.93705689  .00000091  00000+0  00000+0 0  9997
2 51850   0.0372 171.7340 0000425 325.4670 331.2805  1.00271950  6625
NOAA 21 (JPSS-2)        
1 54234U 22150A   26171.41746469  .00000044  00000+0  41590-4 0  9996
2 54234  98.7059 110.1525 0001836 147.2077 212.9214 14.19565986187000
METEOSAT-12 (MTG-I1)    
1 54743U 22170C   26171.24937015 -.00000013  00000+0  00000+0 0  9996
2 54743   0.7421  23.5307 0003320  70.9892 263.3203  1.00273524 13009
TIANMU-1 03             
1 55973U 23039A   26172.51236689  .00012760  00000+0  25107-3 0  9997
2 55973  97.5243 346.6508 0004082  88.7124 271.4593 15.47392330181500
TIANMU-1 04             
1 55974U 23039B   26172.50017186  .00013293  00000+0  25608-3 0  9994
2 55974  97.5177 345.7923 0004718  83.9821 276.1966 15.47992980181519
TIANMU-1 05             
1 55975U 23039C   26172.49333985  .00012617  00000+0  24893-3 0  9995
2 55975  97.5221 346.2447 0004106 104.9703 255.2001 15.47316256181481
TIANMU-1 06             
1 55976U 23039D   26172.50381902  .00013184  00000+0  25487-3 0  9990
2 55976  97.5229 346.8955 0004324  99.6322 260.5416 15.47896063181511
FENGYUN 3G              
1 56232U 23055A   26172.48258118  .00019904  00000+0  32143-3 0  9996
2 56232  49.9935 323.8862 0007121 314.2701  45.7681 15.52798254180671
METEOR-M2 3             
1 57166U 23091A   26172.52499583 -.00000006  00000+0  16221-4 0  9995
2 57166  98.6080 227.4146 0004589 144.4775 215.6710 14.24047159155136
TIANMU-1 07             
1 57399U 23101A   26172.48254884  .00004853  00000+0  17043-3 0  9998
2 57399  97.2589 223.0524 0004274 112.8221 247.3472 15.29848940162308
TIANMU-1 08             
1 57400U 23101B   26172.51458675  .00005094  00000+0  17870-3 0  9995
2 57400  97.2578 222.8538 0005687 104.7184 255.4688 15.29854432162300
TIANMU-1 09             
1 57401U 23101C   26172.49791285  .00005141  00000+0  18018-3 0  9998
2 57401  97.2536 222.2510 0004785 117.1207 243.0522 15.29886210162300
TIANMU-1 10             
1 57402U 23101D   26172.46563515  .00005026  00000+0  17632-3 0  9992
2 57402  97.2615 223.2743 0006346 115.1029 245.0871 15.29857439162291
FENGYUN 3F              
1 57490U 23111A   26172.48399582  .00000011  00000+0  25698-4 0  9994
2 57490  98.6835 242.4127 0001582  90.3874 269.7484 14.19939702149475
ARKTIKA-M 2             
1 58584U 23198A   26168.75920439  .00000145  00000+0  00000+0 0  9993
2 58584  63.2243 154.2920 6902344 267.4286  18.7609  2.00612717 18330
TIANMU-1 11             
1 58645U 23205A   26172.50950514  .00004206  00000+0  16121-3 0  9992
2 58645  97.3448 193.9985 0008423   2.1524 357.9750 15.27032570138189
TIANMU-1 12             
1 58646U 23205B   26172.54550061  .00004499  00000+0  17246-3 0  9993
2 58646  97.3438 193.7888 0006195 347.6663  12.4424 15.26998880138178
TIANMU-1 13             
1 58647U 23205C   26172.51256397  .00004285  00000+0  16517-3 0  9999
2 58647  97.3464 194.0296 0005433 323.2905  36.7961 15.26851187138160
TIANMU-1 14             
1 58648U 23205D   26172.49764391  .00004278  00000+0  16465-3 0  9999
2 58648  97.3401 193.1933 0006382 328.1981  31.8872 15.26895930138163
TIANMU-1 19             
1 58660U 23208A   26172.40296416  .00006532  00000+0  21646-3 0  9997
2 58660  97.4505 288.7245 0003546 308.1636  51.9285 15.31627133137977
TIANMU-1 20             
1 58661U 23208B   26172.56804883  .00006296  00000+0  20107-3 0  9996
2 58661  97.4447 289.5303 0005732 315.3365  44.7415 15.32819357138096
